{"type": "FeatureCollection", "features": [ {"type": "Feature", "properties": {"norad_id": 39122, "name": "EUTELSAT 117 WEST A", "group": "eutelsat", "lat": 0.021948139093217918, "lon": 38.49533670080582, "alt_km": 35795.526617944095, "timestamp": "2025-12-11T05:00:25.982384+00:00", "meta": {"OBJECT_NAME": "EUTELSAT 117 WEST A", "OBJECT_ID": "2013-012A", "EPOCH": "2025-12-10T14:41:56.962176", "MEAN_MOTION": 1.00271076, "ECCENTRICITY": 0.00030181, "INCLINATION": 0.013, "RA_OF_ASC_NODE": 0.7608, "ARG_OF_PERICENTER": 261.2134, "MEAN_ANOMALY": 281.2938, "EPHEMERIS_TYPE": 0, "CLASSIFICATION_TYPE": "U", "NORAD_CAT_ID": 39122, "ELEMENT_SET_NO": 999, "REV_AT_EPOCH": 4654, "BSTAR": 0, "MEAN_MOTION_DOT": -9e-08, "MEAN_MOTION_DDOT": 0}, "tle": {"line1": "1 39122U 13012A   25344.61246484 -.00000009  00000+0  00000+0 0  9995", "line2": "2 39122   0.0130   0.7608 0003018 261.2134 281.2938  1.00271076 46541"}}, "geometry": {"type": "Point", "coordinates": [38.49533670080582, 0.021948139093217918]}}, {"type": "Feature", "properties": {"norad_id": 39163, "name": "EUTELSAT 7B", "group": "eutelsat", "lat": 0.042282201323255574, "lon": 162.24422580957525, "alt_km": 35803.2677989724, "timestamp": "2025-12-11T05:00:25.982396+00:00", "meta": {"OBJECT_NAME": "EUTELSAT 7B", "OBJECT_ID": "2013-022A", "EPOCH": "2025-12-10T21:35:38.732640", "MEAN_MOTION": 1.0027228, "ECCENTRICITY": 0.00046034, "INCLINATION": 0.0722, "RA_OF_ASC_NODE": 17.9897, "ARG_OF_PERICENTER": 298.0401, "MEAN_ANOMALY": 94.7396, "EPHEMERIS_TYPE": 0, "CLASSIFICATION_TYPE": "U", "NORAD_CAT_ID": 39163, "ELEMENT_SET_NO": 999, "REV_AT_EPOCH": 4606, "BSTAR": 0, "MEAN_MOTION_DOT": 5.3e-07, "MEAN_MOTION_DDOT": 0}, "tle": {"line1": "1 39163U 13022A   25344.89975385  .00000053  00000+0  00000+0 0  9998", "line2": "2 39163   0.0722  17.9897 0004603 298.0401  94.7396  1.00272280 46069"}}, "geometry": {"type": "Point", "coordinates": [162.24422580957525, 0.042282201323255574]}}, {"type": "Feature", "properties": {"norad_id": 39612, "name": "EXPRESS-AT1", "group": "eutelsat", "lat": -0.02621338896466836, "lon": -148.73170895307769, "alt_km": 35784.25901560054, "timestamp": "2025-12-11T05:00:25.982408+00:00", "meta": {"OBJECT_NAME": "EXPRESS-AT1", "OBJECT_ID": "2014-010A", "EPOCH": "2025-12-10T20:39:27.684576", "MEAN_MOTION": 1.00270937, "ECCENTRICITY": 4.838e-05, "INCLINATION": 0.0137, "RA_OF_ASC_NODE": 296.6303, "ARG_OF_PERICENTER": 272.7937, "MEAN_ANOMALY": 236.2631, "EPHEMERIS_TYPE": 0, "CLASSIFICATION_TYPE": "U", "NORAD_CAT_ID": 39612, "ELEMENT_SET_NO": 999, "REV_AT_EPOCH": 4293, "BSTAR": 0, "MEAN_MOTION_DOT": 8.4e-07, "MEAN_MOTION_DDOT": 0}, "tle": {"line1": "1 39612U 14010A   25344.86073709  .00000084  00000+0  00000+0 0  9995", "line2": "2 39612   0.0137 296.6303 0000483 272.7937 236.2631  1.00270937 42935"}}, "geometry": {"type": "Point", "coordinates": [-148.73170895307769, -0.02621338896466836]}}, {"type": "Feature", "properties": {"norad_id": 39613, "name": "EXPRESS-AT2", "group": "eutelsat", "lat": -0.025077430822247813, "lon": -64.86230559452274, "alt_km": 35780.307603542766, "timestamp": "2025-12-11T05:00:25.982420+00:00", "meta": {"OBJECT_NAME": "EXPRESS-AT2", "OBJECT_ID": "2014-010B", "EPOCH": "2025-12-10T21:03:17.901792", "MEAN_MOTION": 1.00269519, "ECCENTRICITY": 0.00015298, "INCLINATION": 0.0163, "RA_OF_ASC_NODE": 342.6623, "ARG_OF_PERICENTER": 313.8783, "MEAN_ANOMALY": 238.9938, "EPHEMERIS_TYPE": 0, "CLASSIFICATION_TYPE": "U", "NORAD_CAT_ID": 39613, "ELEMENT_SET_NO": 999, "REV_AT_EPOCH": 4261, "BSTAR": 0, "MEAN_MOTION_DOT": 0, "MEAN_MOTION_DDOT": 0}, "tle": {"line1": "1 39613U 14010B   25344.87729053  .00000000  00000+0  00000+0 0  9995", "line2": "2 39613   0.0163 342.6623 0001529 313.8783 238.9938  1.00269519 42618"}}, "geometry": {"type": "Point", "coordinates": [-64.86230559452274, -0.025077430822247813]}}, {"type": "Feature", "properties": {"norad_id": 39773, "name": "EUTELSAT 3B", "group": "eutelsat", "lat": 0.008098378419258999, "lon": 158.33501365161433, "alt_km": 35779.416870315144, "timestamp": "2025-12-11T05:00:25.982431+00:00", "meta": {"OBJECT_NAME": "EUTELSAT 3B", "OBJECT_ID": "2014-030A", "EPOCH": "2025-12-10T21:35:38.732640", "MEAN_MOTION": 1.00271979, "ECCENTRICITY": 0.00046495, "INCLINATION": 0.0619, "RA_OF_ASC_NODE": 345.3939, "ARG_OF_PERICENTER": 243.1432, "MEAN_ANOMALY": 178.3505, "EPHEMERIS_TYPE": 0, "CLASSIFICATION_TYPE": "U", "NORAD_CAT_ID": 39773, "ELEMENT_SET_NO": 999, "REV_AT_EPOCH": 4217, "BSTAR": 0, "MEAN_MOTION_DOT": 2.5e-07, "MEAN_MOTION_DDOT": 0}, "tle": {"line1": "1 39773U 14030A   25344.89975385  .00000025  00000+0  00000+0 0  9994", "line2": "2 39773   0.0619 345.3939 0004649 243.1432 178.3505  1.00271979 42174"}}, "geometry": {"type": "Point", "coordinates": [158.33501365161433, 0.008098378419258999]}}, {"type": "Feature", "properties": {"norad_id": 40425, "name": "EUTELSAT 115 WEST B", "group": "eutelsat", "lat": -0.010245720262718748, "lon": 40.35285553228283, "alt_km": 35789.67739951702, "timestamp": "2025-12-11T05:00:25.982442+00:00", "meta": {"OBJECT_NAME": "EUTELSAT 115 WEST B", "OBJECT_ID": "2015-010B", "EPOCH": "2025-12-10T16:25:11.235648", "MEAN_MOTION": 1.00263828, "ECCENTRICITY": 6.192e-05, "INCLINATION": 0.0066, "RA_OF_ASC_NODE": 149.6545, "ARG_OF_PERICENTER": 12.7699, "MEAN_ANOMALY": 48.6247, "EPHEMERIS_TYPE": 0, "CLASSIFICATION_TYPE": "U", "NORAD_CAT_ID": 40425, "ELEMENT_SET_NO": 999, "REV_AT_EPOCH": 3950, "BSTAR": 0, "MEAN_MOTION_DOT": -1.9e-07, "MEAN_MOTION_DDOT": 0}, "tle": {"line1": "1 40425U 15010B   25344.68415782 -.00000019  00000+0  00000+0 0  9990", "line2": "2 40425   0.0066 149.6545 0000619  12.7699  48.6247  1.00263828 39501"}}, "geometry": {"type": "Point", "coordinates": [40.35285553228283, -0.010245720262718748]}}, {"type": "Feature", "properties": {"norad_id": 40875, "name": "EUTELSAT 8 WEST B", "group": "eutelsat", "lat": 0.04361254435112779, "lon": 147.2484587391699, "alt_km": 35793.2431400385, "timestamp": "2025-12-11T05:00:25.982454+00:00", "meta": {"OBJECT_NAME": "EUTELSAT 8 WEST B", "OBJECT_ID": "2015-039B", "EPOCH": "2025-12-10T21:43:38.678592", "MEAN_MOTION": 1.00271569, "ECCENTRICITY": 0.00041859, "INCLINATION": 0.0649, "RA_OF_ASC_NODE": 4.0639, "ARG_OF_PERICENTER": 256.869, "MEAN_ANOMALY": 136.8675, "EPHEMERIS_TYPE": 0, "CLASSIFICATION_TYPE": "U", "NORAD_CAT_ID": 40875, "ELEMENT_SET_NO": 999, "REV_AT_EPOCH": 3776, "BSTAR": 0, "MEAN_MOTION_DOT": -6e-07, "MEAN_MOTION_DDOT": 0}, "tle": {"line1": "1 40875U 15039B   25344.90530878 -.00000060  00000+0  00000+0 0  9995", "line2": "2 40875   0.0649   4.0639 0004185 256.8690 136.8675  1.00271569 37761"}}, "geometry": {"type": "Point", "coordinates": [147.2484587391699, 0.04361254435112779]}}, {"type": "Feature", "properties": {"norad_id": 41310, "name": "EUTELSAT 9B", "group": "eutelsat", "lat": 0.03581489957249597, "lon": 164.24255819873486, "alt_km": 35789.9270733879, "timestamp": "2025-12-11T05:00:25.982465+00:00", "meta": {"OBJECT_NAME": "EUTELSAT 9B", "OBJECT_ID": "2016-005A", "EPOCH": "2025-12-10T21:35:38.732640", "MEAN_MOTION": 1.00272893, "ECCENTRICITY": 0.00048106, "INCLINATION": 0.0406, "RA_OF_ASC_NODE": 59.4246, "ARG_OF_PERICENTER": 206.755, "MEAN_ANOMALY": 146.6182, "EPHEMERIS_TYPE": 0, "CLASSIFICATION_TYPE": "U", "NORAD_CAT_ID": 41310, "ELEMENT_SET_NO": 999, "REV_AT_EPOCH": 3622, "BSTAR": 0, "MEAN_MOTION_DOT": 6.7e-07, "MEAN_MOTION_DDOT": 0}, "tle": {"line1": "1 41310U 16005A   25344.89975385  .00000067  00000+0  00000+0 0  9994", "line2": "2 41310   0.0406  59.4246 0004810 206.7550 146.6182  1.00272893 36222"}}, "geometry": {"type": "Point", "coordinates": [164.24255819873486, 0.03581489957249597]}}, {"type": "Feature", "properties": {"norad_id": 41382, "name": "EUTELSAT 65 WEST A", "group": "eutelsat", "lat": 0.0668122720499883, "lon": 90.07466821697206, "alt_km": 35796.89574077816, "timestamp": "2025-12-11T05:00:25.982476+00:00", "meta": {"OBJECT_NAME": "EUTELSAT 65 WEST A", "OBJECT_ID": "2016-014A", "EPOCH": "2025-12-10T20:04:46.008768", "MEAN_MOTION": 1.00272418, "ECCENTRICITY": 0.0002594, "INCLINATION": 0.0505, "RA_OF_ASC_NODE": 8.8869, "ARG_OF_PERICENTER": 257.6289, "MEAN_ANOMALY": 49.2805, "EPHEMERIS_TYPE": 0, "CLASSIFICATION_TYPE": "U", "NORAD_CAT_ID": 41382, "ELEMENT_SET_NO": 999, "REV_AT_EPOCH": 3564, "BSTAR": 0, "MEAN_MOTION_DOT": -2.71e-06, "MEAN_MOTION_DDOT": 0}, "tle": {"line1": "1 41382U 16014A   25344.83664362 -.00000271  00000+0  00000+0 0  9995", "line2": "2 41382   0.0505   8.8869 0002594 257.6289  49.2805  1.00272418 35649"}}, "geometry": {"type": "Point", "coordinates": [90.07466821697206, 0.0668122720499883]}}, {"type": "Feature", "properties": {"norad_id": 41589, "name": "EUTELSAT 117 WEST B", "group": "eutelsat", "lat": -0.006445696573171698, "lon": 38.28763676337863, "alt_km": 35784.93160843079, "timestamp": "2025-12-11T05:00:25.982488+00:00", "meta": {"OBJECT_NAME": "EUTELSAT 117 WEST B", "OBJECT_ID": "2016-038B", "EPOCH": "2025-12-10T14:41:49.473888", "MEAN_MOTION": 1.00271682, "ECCENTRICITY": 4.035e-05, "INCLINATION": 0.0104, "RA_OF_ASC_NODE": 147.6779, "ARG_OF_PERICENTER": 297.9326, "MEAN_ANOMALY": 97.4445, "EPHEMERIS_TYPE": 0, "CLASSIFICATION_TYPE": "U", "NORAD_CAT_ID": 41589, "ELEMENT_SET_NO": 999, "REV_AT_EPOCH": 3477, "BSTAR": 0, "MEAN_MOTION_DOT": -7e-08, "MEAN_MOTION_DDOT": 0}, "tle": {"line1": "1 41589U 16038B   25344.61237817 -.00000007  00000+0  00000+0 0  9994", "line2": "2 41589   0.0104 147.6779 0000403 297.9326  97.4445  1.00271682 34771"}}, "geometry": {"type": "Point", "coordinates": [38.28763676337863, -0.006445696573171698]}}]}